[{"OBJECT_NAME":"FLOCK 4G-18","OBJECT_ID":"2025-009BZ","EPOCH":"2026-03-09T04:35:14.656704","MEAN_MOTION":15.27241676,"ECCENTRICITY":0.00041001,"INCLINATION":97.4054,"RA_OF_ASC_NODE":150.5008,"ARG_OF_PERICENTER":335.7331,"MEAN_ANOMALY":24.3715,"EPHEMERIS_TYPE":0,"CLASSIFICATION_TYPE":"U","NORAD_CAT_ID":62680,"ELEMENT_SET_NO":999,"REV_AT_EPOCH":12126,"BSTAR":0.0004431856,"MEAN_MOTION_DOT":0.00011766,"MEAN_MOTION_DDOT":0},{"OBJECT_NAME":"STARLINK-36434","OBJECT_ID":"2026-002T","EPOCH":"2026-03-09T03:43:11.626752","MEAN_MOTION":15.27498947,"ECCENTRICITY":0.00011603,"INCLINATION":43.0012,"RA_OF_ASC_NODE":328.5885,"ARG_OF_PERICENTER":309.9605,"MEAN_ANOMALY":50.1144,"EPHEMERIS_TYPE":0,"CLASSIFICATION_TYPE":"U","NORAD_CAT_ID":67322,"ELEMENT_SET_NO":999,"REV_AT_EPOCH":1099,"BSTAR":0.0012314494,"MEAN_MOTION_DOT":0.00033696,"MEAN_MOTION_DDOT":0}]
